NORAD_CAT_ID,OBJECT_NAME,OBJECT_TYPE,EPOCH,MEAN_MOTION,ECCENTRICITY,INCLINATION,RA_OF_ASC_NODE,ARG_OF_PERICENTER,MEAN_ANOMALY,BSTAR,MEAN_MOTION_DOT,MEAN_MOTION_DDOT,TLE_LINE0,TLE_LINE1,TLE_LINE2,SEMIMAJOR_AXIS,PERIOD,APOGEE,PERIGEE,DECAYED
55674.0,STARLINK-5462,PAYLOAD,2023-07-30 14:00:01,15.6153514,0.000351,69.9995,52.2397,265.0728,33.7693,-0.012172,-0.00949538,0.0,0 STARLINK-5462,1 55674U 23021AY  23211.58334491 -.00949538  00000-0 -12172-1 0  9995,2 55674  69.9995  52.2397 0003510 265.0728  33.7693 15.61535140 26092,6761.359,92.217,385.597,380.851,0.0
55674.0,STARLINK-5462,PAYLOAD,2023-07-31 14:00:01,15.59572568,0.0003479,69.9993,49.4667,267.2625,247.7662,-0.012978,-0.00939641,0.0,0 STARLINK-5462,1 55674U 23021AY  23212.58334491 -.00939641  00000-0 -12978-1 0  9994,2 55674  69.9993  49.4667 0003479 267.2625 247.7662 15.59572568 26255,6767.03,92.333,391.249,386.541,0.0
55674.0,STARLINK-5462,PAYLOAD,2023-08-01 22:00:00,15.56912492,0.0003584,69.9987,45.7818,276.7572,155.5807,-0.013006,-0.00858926,0.0,0 STARLINK-5462,1 55674U 23021AY  23213.91667824 -.00858926  00000-0 -13006-1 0  9990,2 55674  69.9987  45.7818 0003584 276.7572 155.5807 15.56912492 26469,6774.736,92.491,399.029,394.173,0.0
55674.0,STARLINK-5462,PAYLOAD,2023-08-02 14:00:01,15.55668935,0.0003369,69.9991,43.9451,267.1205,299.1532,-0.015428,-0.00961982,0.0,0 STARLINK-5462,1 55674U 23021AY  23214.58334491 -.00961982  00000-0 -15428-1 0  9992,2 55674  69.9991  43.9451 0003369 267.1205 299.1532 15.55668935 26565,6778.346,92.565,402.494,397.927,0.0
55674.0,STARLINK-5462,PAYLOAD,2023-08-03 06:00:00,15.54303515,0.0003418,69.9988,42.1114,270.1132,67.0079,-0.014654,-0.0087688,0.0,0 STARLINK-5462,1 55674U 23021AY  23215.25001157 -.00876880  00000-0 -14654-1 0  9999,2 55674  69.9988  42.1114 0003418 270.1132  67.0079 15.54303515 26675,6782.315,92.646,406.498,401.862,0.0
55674.0,STARLINK-5462,PAYLOAD,2023-08-03 22:00:00,15.53012468,0.0003288,69.9993,40.2818,276.4811,188.3255,-0.015476,-0.00882837,0.0,0 STARLINK-5462,1 55674U 23021AY  23215.91667824 -.00882837  00000-0 -15476-1 0  9993,2 55674  69.9993  40.2818 0003288 276.4811 188.3255 15.53012468 26776,6786.073,92.723,410.17,405.707,0.0
55674.0,STARLINK-5462,PAYLOAD,2023-08-04 22:00:00,15.51179262,0.0003252,69.9997,37.5447,275.9555,14.5601,0.0010613,0.00062569,0.0,0 STARLINK-5462,1 55674U 23021AY  23216.91667824  .00062569  00000-0  10613-2 0  9993,2 55674  69.9997  37.5447 0003252 275.9555  14.5601 15.51179262 26923,6791.419,92.833,415.492,411.075,0.0
55674.0,STARLINK-5462,PAYLOAD,2023-08-05 14:00:01,15.51271525,0.0003349,70.0006,35.7221,269.9421,142.3742,-0.0013192,-0.00077035,0.0,0 STARLINK-5462,1 55674U 23021AY  23217.58334491 -.00077035  00000-0 -13192-2 0  9999,2 55674  70.0006  35.7221 0003349 269.9421 142.3742 15.51271525 27033,6791.15,92.827,415.289,410.74,0.0
55674.0,STARLINK-5462,PAYLOAD,2023-08-06 06:00:00,15.51209287,0.0003445,70.0005,33.8992,272.1094,262.0531,0.00051328,0.00030084,0.0,0 STARLINK-5462,1 55674U 23021AY  23218.25001157  .00030084  00000-0  51328-3 0  9999,2 55674  70.0005  33.8992 0003445 272.1094 262.0531 15.51209287 27138,6791.331,92.831,415.536,410.857,0.0
55674.0,STARLINK-5462,PAYLOAD,2023-08-06 22:00:00,15.51232229,0.0003445,70.0008,32.0765,275.3068,20.6757,9.2509e-05,5.274e-05,0.0,0 STARLINK-5462,1 55674U 23021AY  23218.91667824  .00005274  00000-0  92509-4 0  9991,2 55674  70.0008  32.0765 0003445 275.3068  20.6757 15.51232229 27237,6791.264,92.829,415.469,410.79,0.0
55674.0,STARLINK-5462,PAYLOAD,2023-08-07 22:00:00,15.51382264,0.0003378,70.0005,29.3429,273.9588,204.7548,-0.0089779,-0.00498486,0.0,0 STARLINK-5462,1 55674U 23021AY  23219.91667824 -.00498486  00000-0 -89779-2 0  9998,2 55674  70.0005  29.3429 0003378 273.9588 204.7548 15.51382264 27391,6790.826,92.82,414.985,410.397,0.0
55674.0,STARLINK-5462,PAYLOAD,2023-08-07 23:02:16,15.51228843,0.0003037,69.9984,29.2261,263.4703,96.6137,2.0142e-05,1.019e-05,0.0,0 STARLINK-5462,1 55674U 23021AY  23219.95991024  .00001019  00000-0  20142-4 0  9995,2 55674  69.9984  29.2261 0003037 263.4703  96.6137 15.51228843 27408,6791.274,92.83,415.202,411.077,0.0
55674.0,STARLINK-5462,PAYLOAD,2023-08-08 11:25:18,15.51105829,0.000364,69.9987,27.8162,255.6992,104.379,-0.00023497,-0.00013885,0.0,0 STARLINK-5462,1 55674U 23021AY  23220.47590685 -.00013885  00000-0 -23497-3 0  9993,2 55674  69.9987  27.8162 0003640 255.6992 104.3790 15.51105829 27486,6791.633,92.837,415.97,411.026,0.0
55674.0,STARLINK-5462,PAYLOAD,2023-08-08 20:42:14,15.51293537,0.0006971,69.9985,26.7579,287.9531,72.0894,0.00020492,0.00011928,0.0,0 STARLINK-5462,1 55674U 23021AY  23220.86267202  .00011928  00000-0  20492-3 0  9998,2 55674  69.9985  26.7579 0006971 287.9531  72.0894 15.51293537 27548,6791.085,92.826,417.684,408.216,0.0
55674.0,STARLINK-5462,PAYLOAD,2023-08-09 19:58:28,15.49269099,0.000373,69.9973,24.1204,273.8496,86.2263,-0.0039461,-0.00210829,0.0,0 STARLINK-5462,1 55674U 23021AY  23221.83227828 -.00210829  00000-0 -39461-2 0  9994,2 55674  69.9973  24.1204 0003730 273.8496  86.2263 15.49269099 27692,6797.0,92.947,421.4,416.33,0.0
55674.0,STARLINK-5462,PAYLOAD,2023-08-10 14:00:01,15.46495054,0.0003423,70.0002,22.0758,269.2131,316.0663,-0.020997,-0.00957864,0.0,0 STARLINK-5462,1 55674U 23021AY  23222.58334491 -.00957864  00000-0 -20997-1 0  9992,2 55674  70.0002  22.0758 0003423 269.2131 316.0663 15.46495054 27803,6805.126,93.114,429.32,424.661,0.0
55674.0,STARLINK-5462,PAYLOAD,2023-08-11 06:00:00,15.45132008,0.0003456,70.0,20.2678,268.0892,66.0665,-0.019254,-0.00836064,0.0,0 STARLINK-5462,1 55674U 23021AY  23223.25001157 -.00836064  00000-0 -19254-1 0  9999,2 55674  70.0000  20.2678 0003456 268.0892  66.0665 15.45132008 27911,6809.127,93.196,433.345,428.639,0.0
55674.0,STARLINK-5462,PAYLOAD,2023-08-11 14:00:01,15.4453478,0.0003493,70.0003,19.3653,271.6445,115.7587,-0.02235,-0.00953558,0.0,0 STARLINK-5462,1 55674U 23021AY  23223.58334491 -.00953558  00000-0 -22350-1 0  9994,2 55674  70.0003  19.3653 0003493 271.6445 115.7587 15.44534780 27963,6810.882,93.232,435.126,430.368,0.0
55674.0,STARLINK-5462,PAYLOAD,2023-08-12 06:00:00,15.43173977,0.0003256,69.9998,17.5625,268.5673,223.0166,-0.020475,-0.00832051,0.0,0 STARLINK-5462,1 55674U 23021AY  23224.25001157 -.00832051  00000-0 -20475-1 0  9999,2 55674  69.9998  17.5625 0003256 268.5673 223.0166 15.43173977 28061,6814.886,93.314,438.97,434.532,0.0
55674.0,STARLINK-5462,PAYLOAD,2023-08-12 14:00:01,15.42568878,0.0003224,70.0002,16.6624,268.6322,273.8555,-0.02349,-0.00938798,0.0,0 STARLINK-5462,1 55674U 23021AY  23224.58334491 -.00938798  00000-0 -23490-1 0  9990,2 55674  70.0002  16.6624 0003224 268.6322 273.8555 15.42568878 28114,6816.668,93.351,440.731,436.335,0.0
55674.0,STARLINK-5462,PAYLOAD,2023-08-13 14:00:01,15.40606547,0.0003338,70.0001,13.968,268.3507,62.1798,-0.024838,-0.00930383,0.0,0 STARLINK-5462,1 55674U 23021AY  23225.58334491 -.00930383  00000-0 -24838-1 0  9990,2 55674  70.0001  13.9680 0003338 268.3507  62.1798 15.40606547 28272,6822.455,93.47,446.597,442.043,0.0
55674.0,STARLINK-5462,PAYLOAD,2023-08-14 22:00:01,15.37995375,0.0003315,70.0,10.3879,275.7634,241.263,-0.02647,-0.00911443,0.0,0 STARLINK-5462,1 55674U 23021AY  23226.91668981 -.00911443  00000-0 -26470-1 0  9992,2 55674  70.0000  10.3879 0003315 275.7634 241.2630 15.37995375 28473,6830.175,93.628,454.304,449.776,0.0
55674.0,STARLINK-5462,PAYLOAD,2023-08-15 18:00:00,15.36353825,0.0003403,70.0007,8.1575,276.1355,170.9987,-0.027479,-0.00898226,0.0,0 STARLINK-5462,1 55674U 23021AY  23227.75001157 -.00898226  00000-0 -27479-1 0  9994,2 55674  70.0007   8.1575 0003403 276.1355 170.9987 15.36353825 28606,6835.039,93.728,459.23,454.578,0.0
55674.0,STARLINK-5462,PAYLOAD,2023-08-16 22:00:00,15.3408973,0.0003464,70.0006,5.0439,276.1892,136.956,-0.030554,-0.00926341,0.0,0 STARLINK-5462,1 55674U 23021AY  23228.91667824 -.00926341  00000-0 -30554-1 0  9990,2 55674  70.0006   5.0439 0003464 276.1892 136.9560 15.34089730 28780,6841.763,93.867,465.998,461.258,0.0
55674.0,STARLINK-5462,PAYLOAD,2023-08-18 06:00:02,15.31436912,0.000323,70.0009,1.4992,268.0395,300.3243,-0.030368,-0.00852713,0.0,0 STARLINK-5462,1 55674U 23021AY  23230.25002315 -.00852713  00000-0 -30368-1 0  9992,2 55674  70.0009   1.4992 0003230 268.0395 300.3243 15.31436912 28988,6849.661,94.029,473.739,469.314,0.0
55674.0,STARLINK-5462,PAYLOAD,2023-08-18 22:00:00,15.30189179,0.0003331,70.0008,359.7321,274.1577,7.0065,-0.035475,-0.00961427,0.0,0 STARLINK-5462,1 55674U 23021AY  23230.91667824 -.00961427  00000-0 -35475-1 0  9994,2 55674  70.0008 359.7321 0003331 274.1577   7.0065 15.30189179 29099,6853.384,94.106,477.532,472.967,0.0
55674.0,STARLINK-5462,PAYLOAD,2023-08-19 14:00:01,15.28868269,0.0003439,70.0011,357.9687,273.7383,77.2451,-0.035937,-0.00925289,0.0,0 STARLINK-5462,1 55674U 23021AY  23231.58335648 -.00925289  00000-0 -35937-1 0  9993,2 55674  70.0011 357.9687 0003439 273.7383  77.2451 15.28868269 29197,6857.331,94.187,481.555,476.838,0.0
55674.0,STARLINK-5462,PAYLOAD,2023-08-20 22:00:00,15.26277202,0.0003317,70.0007,354.4522,279.1952,201.8289,-0.040192,-0.00965782,0.0,0 STARLINK-5462,1 55674U 23021AY  23232.91667824 -.00965782  00000-0 -40192-1 0  9996,2 55674  70.0007 354.4522 0003317 279.1952 201.8289 15.26277202 29394,6865.09,94.347,489.232,484.678,0.0
55674.0,STARLINK-5462,PAYLOAD,2023-08-21 14:00:01,15.24947695,0.0003317,70.0009,352.6992,276.0659,265.3301,-0.040067,-0.00927815,0.0,0 STARLINK-5462,1 55674U 23021AY  23233.58334491 -.00927815  00000-0 -40067-1 0  9997,2 55674  70.0009 352.6992 0003317 276.0659 265.3301 15.24947695 29496,6869.08,94.429,493.223,488.666,0.0
55674.0,STARLINK-5462,PAYLOAD,2023-08-22 22:00:00,15.22362799,0.0003423,70.0004,349.2029,276.7227,16.0003,-0.045345,-0.00968833,0.0,0 STARLINK-5462,1 55674U 23021AY  23234.91667824 -.00968833  00000-0 -45345-1 0  9993,2 55674  70.0004 349.2029 0003423 276.7227  16.0003 15.22362799 29708,6876.853,94.59,501.072,496.364,0.0
